*******************************************************************************
Ephemeris / WWW_USER Mon Mar 24 08:46:31 2025 Pasadena, USA      / Horizons    
*******************************************************************************
Target body name: (2018 OG)                       {source: JPL#12}
Center body name: Earth (399)                     {source: DE441}
Center-site name: Mauna Kea
*******************************************************************************
Start time      : A.D. 2019-Jan-05 04:06:00.0000 UT      
Stop  time      : A.D. 2019-Jan-05 16:47:00.0000 UT      
Step-size       : 1 minutes
*******************************************************************************
Target pole/equ : undefined
Target radii    : undefined                                                    
Center geodetic : 204.5278, 19.8260847, 4.21024   {E-lon(deg),Lat(deg),Alt(km)}
Center cylindric: 204.5278, 6006.35451, 2151.0229 {E-lon(deg),Dxy(km),Dz(km)}
Center pole/equ : ITRF93                          {East-longitude positive}
Center radii    : 6378.137, 6378.137, 6356.752 km {Equator_a, b, pole_c}       
Target primary  : Sun
Vis. interferer : MOON (R_eq= 1737.400) km        {source: DE441}
Rel. light bend : Sun                             {source: DE441}
Rel. lght bnd GM: 1.3271E+11 km^3/s^2                                          
Small-body perts: Yes                             {source: SB441-N16}
Atmos refraction: NO (AIRLESS)
RA format       : HMS
Time format     : CAL 
Calendar mode   : Mixed Julian/Gregorian
RTS-only print  : NO       
EOP file        : eop.250321.p250617                                           
EOP coverage    : DATA-BASED 1962-JAN-20 TO 2025-MAR-21. PREDICTS-> 2025-JUN-16
Units conversion: 1 au= 149597870.700 km, c= 299792.458 km/s, 1 day= 86400.0 s 
Table cut-offs 1: Elevation (-90.0deg=NO ),Airmass (>38.000=NO), Daylight (YES)
Table cut-offs 2: Solar elongation (  0.0,180.0=NO ),Local Hour Angle( 0.0=NO )
Table cut-offs 3: RA/DEC angular rate (     0.0=NO )                           
*******************************************************************************
Initial IAU76/J2000 heliocentric ecliptic osculating elements (au, days, deg.):
  EPOCH=  2458389.5 ! 2018-Sep-28.00 (TDB)         Residual RMS= .17662        
   EC= .5817218672922059   QR= .9873203561553971   TP= 2458366.942240702       
   OM= 131.0345430575832   W=  220.7633135105564   IN= 9.123860581277821       
  Equivalent ICRF heliocentric cartesian coordinates (au, au/d):
   X= 9.625437195102586E-01  Y= 3.686106454146055E-01  Z=-5.877845729655690E-03
  VX=-3.555418036941177E-03 VY= 1.979451357965206E-02 VZ= 6.659913004156397E-03
Asteroid physical parameters (km, seconds, rotational period in hours):        
   GM= n.a.                RAD= n.a.               ROTPER= n.a.                
   H= 23.6                 G= .150                 B-V= n.a.                   
                           ALBEDO= n.a.            STYP= n.a.                  
*******************************************************************************
 Date__(UT)__HR:MN     R.A._________(ICRF)_________DEC
******************************************************
$$SOE
 2019-Jan-05 10:15     05 05 24.733916 +10 23 02.16971
 2019-Jan-05 10:16     05 05 24.710615 +10 23 02.74335
 2019-Jan-05 10:17     05 05 24.687321 +10 23 03.31696
 2019-Jan-05 10:18     05 05 24.664035 +10 23 03.89052
 2019-Jan-05 10:19     05 05 24.640756 +10 23 04.46406
 2019-Jan-05 10:20     05 05 24.617484 +10 23 05.03755
 2019-Jan-05 10:21     05 05 24.594220 +10 23 05.61101
 2019-Jan-05 10:22     05 05 24.570964 +10 23 06.18443
 2019-Jan-05 10:23     05 05 24.547715 +10 23 06.75782
 2019-Jan-05 10:24     05 05 24.524474 +10 23 07.33117
 2019-Jan-05 10:25     05 05 24.501240 +10 23 07.90448
 2019-Jan-05 10:26     05 05 24.478015 +10 23 08.47776
 2019-Jan-05 10:27     05 05 24.454797 +10 23 09.05101
 2019-Jan-05 10:28     05 05 24.431587 +10 23 09.62422
 2019-Jan-05 10:29     05 05 24.408386 +10 23 10.19739
 2019-Jan-05 10:30     05 05 24.385192 +10 23 10.77053
 2019-Jan-05 10:31     05 05 24.362006 +10 23 11.34363
 2019-Jan-05 10:32     05 05 24.338828 +10 23 11.91669
 2019-Jan-05 10:33     05 05 24.315659 +10 23 12.48973
 2019-Jan-05 10:34     05 05 24.292498 +10 23 13.06272
 2019-Jan-05 10:35     05 05 24.269345 +10 23 13.63568
 2019-Jan-05 10:36     05 05 24.246200 +10 23 14.20861
 2019-Jan-05 10:37     05 05 24.223063 +10 23 14.78150
 2019-Jan-05 10:38     05 05 24.199935 +10 23 15.35436
 2019-Jan-05 10:39     05 05 24.176816 +10 23 15.92718
 2019-Jan-05 10:40     05 05 24.153705 +10 23 16.49997
 2019-Jan-05 10:41     05 05 24.130602 +10 23 17.07273
 2019-Jan-05 10:42     05 05 24.107508 +10 23 17.64545
 2019-Jan-05 10:43     05 05 24.084423 +10 23 18.21813
 2019-Jan-05 10:44     05 05 24.061346 +10 23 18.79078
 2019-Jan-05 10:45     05 05 24.038279 +10 23 19.36340
 2019-Jan-05 10:46     05 05 24.015220 +10 23 19.93598
 2019-Jan-05 10:47     05 05 23.992169 +10 23 20.50853
 2019-Jan-05 10:48     05 05 23.969128 +10 23 21.08104
 2019-Jan-05 10:49     05 05 23.946096 +10 23 21.65352
 2019-Jan-05 10:50     05 05 23.923072 +10 23 22.22597
 2019-Jan-05 10:51     05 05 23.900058 +10 23 22.79838
 2019-Jan-05 10:52     05 05 23.877052 +10 23 23.37077
 2019-Jan-05 10:53     05 05 23.854056 +10 23 23.94311
 2019-Jan-05 10:54     05 05 23.831069 +10 23 24.51542
 2019-Jan-05 10:55     05 05 23.808091 +10 23 25.08771
 2019-Jan-05 10:56     05 05 23.785123 +10 23 25.65995
 2019-Jan-05 10:57     05 05 23.762163 +10 23 26.23217
 2019-Jan-05 10:58     05 05 23.739213 +10 23 26.80435
 2019-Jan-05 10:59     05 05 23.716273 +10 23 27.37649
 2019-Jan-05 11:00     05 05 23.693342 +10 23 27.94861
 2019-Jan-05 11:01     05 05 23.670420 +10 23 28.52069
 2019-Jan-05 11:02     05 05 23.647508 +10 23 29.09274
 2019-Jan-05 11:03     05 05 23.624605 +10 23 29.66476
 2019-Jan-05 11:04     05 05 23.601712 +10 23 30.23674
 2019-Jan-05 11:05     05 05 23.578829 +10 23 30.80870
 2019-Jan-05 11:06     05 05 23.555956 +10 23 31.38062
 2019-Jan-05 11:07     05 05 23.533092 +10 23 31.95251
 2019-Jan-05 11:08     05 05 23.510238 +10 23 32.52436
 2019-Jan-05 11:09     05 05 23.487394 +10 23 33.09619
 2019-Jan-05 11:10     05 05 23.464560 +10 23 33.66798
 2019-Jan-05 11:11     05 05 23.441735 +10 23 34.23974
 2019-Jan-05 11:12     05 05 23.418921 +10 23 34.81147
 2019-Jan-05 11:13     05 05 23.396117 +10 23 35.38317
 2019-Jan-05 11:14     05 05 23.373322 +10 23 35.95483
 2019-Jan-05 11:15     05 05 23.350538 +10 23 36.52647
 2019-Jan-05 11:16     05 05 23.327764 +10 23 37.09807
 2019-Jan-05 11:17     05 05 23.305001 +10 23 37.66965
 2019-Jan-05 11:18     05 05 23.282247 +10 23 38.24119
 2019-Jan-05 11:19     05 05 23.259504 +10 23 38.81270
 2019-Jan-05 11:20     05 05 23.236771 +10 23 39.38418
 2019-Jan-05 11:21     05 05 23.214048 +10 23 39.95563
 2019-Jan-05 11:22     05 05 23.191336 +10 23 40.52705
 2019-Jan-05 11:23     05 05 23.168634 +10 23 41.09844
 2019-Jan-05 11:24     05 05 23.145943 +10 23 41.66980
 2019-Jan-05 11:25     05 05 23.123262 +10 23 42.24112
 2019-Jan-05 11:26     05 05 23.100592 +10 23 42.81242
 2019-Jan-05 11:27     05 05 23.077933 +10 23 43.38369
 2019-Jan-05 11:28     05 05 23.055284 +10 23 43.95493
 2019-Jan-05 11:29     05 05 23.032646 +10 23 44.52613
 2019-Jan-05 11:30     05 05 23.010018 +10 23 45.09731
 2019-Jan-05 11:31     05 05 22.987402 +10 23 45.66846
 2019-Jan-05 11:32     05 05 22.964796 +10 23 46.23958
 2019-Jan-05 11:33     05 05 22.942201 +10 23 46.81067
 2019-Jan-05 11:34     05 05 22.919617 +10 23 47.38173
 2019-Jan-05 11:35     05 05 22.897044 +10 23 47.95276
 2019-Jan-05 11:36     05 05 22.874482 +10 23 48.52376
 2019-Jan-05 11:37     05 05 22.851931 +10 23 49.09474
 2019-Jan-05 11:38     05 05 22.829391 +10 23 49.66568
 2019-Jan-05 11:39     05 05 22.806862 +10 23 50.23660
 2019-Jan-05 11:40     05 05 22.784344 +10 23 50.80749
 2019-Jan-05 11:41     05 05 22.761837 +10 23 51.37834
 2019-Jan-05 11:42     05 05 22.739342 +10 23 51.94917
 2019-Jan-05 11:43     05 05 22.716857 +10 23 52.51998
 2019-Jan-05 11:44     05 05 22.694385 +10 23 53.09075
 2019-Jan-05 11:45     05 05 22.671923 +10 23 53.66150
 2019-Jan-05 11:46     05 05 22.649473 +10 23 54.23222
 2019-Jan-05 11:47     05 05 22.627034 +10 23 54.80291
 2019-Jan-05 11:48     05 05 22.604607 +10 23 55.37357
 2019-Jan-05 11:49     05 05 22.582191 +10 23 55.94420
 2019-Jan-05 11:50     05 05 22.559786 +10 23 56.51481
 2019-Jan-05 11:51     05 05 22.537394 +10 23 57.08539
 2019-Jan-05 11:52     05 05 22.515012 +10 23 57.65595
 2019-Jan-05 11:53     05 05 22.492643 +10 23 58.22647
 2019-Jan-05 11:54     05 05 22.470285 +10 23 58.79697
 2019-Jan-05 11:55     05 05 22.447939 +10 23 59.36744
 2019-Jan-05 11:56     05 05 22.425604 +10 23 59.93789
 2019-Jan-05 11:57     05 05 22.403281 +10 24 00.50831
 2019-Jan-05 11:58     05 05 22.380970 +10 24 01.07870
 2019-Jan-05 11:59     05 05 22.358671 +10 24 01.64907
 2019-Jan-05 12:00     05 05 22.336384 +10 24 02.21941
 2019-Jan-05 12:01     05 05 22.314109 +10 24 02.78972
 2019-Jan-05 12:02     05 05 22.291845 +10 24 03.36001
 2019-Jan-05 12:03     05 05 22.269594 +10 24 03.93027
 2019-Jan-05 12:04     05 05 22.247354 +10 24 04.50051
 2019-Jan-05 12:05     05 05 22.225127 +10 24 05.07072
 2019-Jan-05 12:06     05 05 22.202912 +10 24 05.64091
 2019-Jan-05 12:07     05 05 22.180709 +10 24 06.21107
 2019-Jan-05 12:08     05 05 22.158518 +10 24 06.78120
 2019-Jan-05 12:09     05 05 22.136339 +10 24 07.35131
 2019-Jan-05 12:10     05 05 22.114172 +10 24 07.92140
 2019-Jan-05 12:11     05 05 22.092018 +10 24 08.49146
 2019-Jan-05 12:12     05 05 22.069876 +10 24 09.06149
 2019-Jan-05 12:13     05 05 22.047746 +10 24 09.63150
 2019-Jan-05 12:14     05 05 22.025629 +10 24 10.20149
 2019-Jan-05 12:15     05 05 22.003523 +10 24 10.77145
 2019-Jan-05 12:16     05 05 21.981431 +10 24 11.34139
 2019-Jan-05 12:17     05 05 21.959351 +10 24 11.91130
